sat30125
1 30125U 99025SE  20046.38429094  .00000257  00000-0  91747-4 0  9993
2 30125  98.6074 180.3155 0401776 283.7603 139.3463 14.06034567669202
